[{"OBJECT_NAME":"TEVEL2-4","OBJECT_ID":"2025-052D","EPOCH":"2026-03-09T16:39:37.129536","MEAN_MOTION":15.30925813,"ECCENTRICITY":0.0004733,"INCLINATION":97.4009,"RA_OF_ASC_NODE":325.1237,"ARG_OF_PERICENTER":95.3468,"MEAN_ANOMALY":264.8313,"EPHEMERIS_TYPE":0,"CLASSIFICATION_TYPE":"U","NORAD_CAT_ID":63213,"ELEMENT_SET_NO":999,"REV_AT_EPOCH":5487,"BSTAR":0.00070362503,"MEAN_MOTION_DOT":0.0002099,"MEAN_MOTION_DDOT":0},{"OBJECT_NAME":"STARLINK-35466","OBJECT_ID":"2025-262B","EPOCH":"2026-03-09T00:47:28.971744","MEAN_MOTION":15.27567876,"ECCENTRICITY":0.00013272,"INCLINATION":43.0029,"RA_OF_ASC_NODE":300.0829,"ARG_OF_PERICENTER":249.8774,"MEAN_ANOMALY":110.1935,"EPHEMERIS_TYPE":0,"CLASSIFICATION_TYPE":"U","NORAD_CAT_ID":66457,"ELEMENT_SET_NO":999,"REV_AT_EPOCH":1880,"BSTAR":0.0012113179,"MEAN_MOTION_DOT":0.00033208,"MEAN_MOTION_DDOT":0}]
