TEVEL2-4                
1 63213U 25052D   26068.69417973  .00020990  00000+0  70363-3 0  9998
2 63213  97.4009 325.1237 0004733  95.3468 264.8313 15.30925813 54879
STARLINK-35466          
1 66457U 25262B   26068.03297421  .00033208  00000+0  12113-2 0  9990
2 66457  43.0029 300.0829 0001327 249.8774 110.1935 15.27567876 18805
